COSMOS 2588             
1 64095U 25109A   26068.81179522  .00009169  00000+0  32611-3 0  9998
2 64095  72.9704  73.5401 0005019 308.6780  51.3966 15.29122656 44425
STARLINK-36522          
1 67461U 26008S   26068.43783774  .00035412  00000+0  12884-2 0  9994
2 67461  43.0018 206.6580 0002991 301.8818  58.1742 15.27623629  9536
